     2.11           N: GPS NAV DATA                         RINEX VERSION / TYPE
teqc  2019Feb25                         20221121 12:28:07UTCPGM / RUN BY / DATE
OSX ker:10.11.6|Core i5|gcc 4.3 -m64|OSX ker:10.10+|=+      COMMENT
    1.0245D-08  7.4506D-09 -5.9605D-08 -5.9605D-08          ION ALPHA
    8.8064D+04  0.0000D+00 -1.9661D+05 -6.5536D+04          ION BETA
    0.000000000000D+00 0.000000000000D+00   589824     1552 DELTA-UTC: A0,A1,T,W
                                                            END OF HEADER
23 09 10  7 23 59 28.0 3.877650015056D-04-4.547473508865D-13 0.000000000000D+00
    1.200000000000D+02-5.668750000000D+01 4.507687763289D-09-1.438667398912D+00
   -3.010034561157D-06 6.392194423825D-03 1.821666955948D-06 5.153766515732D+03
    3.455680000000D+05-7.636845111847D-08-6.770747893970D-01-6.146728992462D-08
    9.696422985224D-01 3.492500000000D+02 2.986262152182D+00-8.364634134872D-09
   -2.121516941125D-10 1.000000000000D+00 1.552000000000D+03 0.000000000000D+00
    2.000000000000D+00 0.000000000000D+00-2.002343535423D-08 1.200000000000D+02
    3.425760000000D+05 4.000000000000D+00
